start=new Date('2022-04-04T00:00:00.000Z').valueOf();
sats=[{"MEAN_MOTION_DDOT":"0.0000000000000","COUNTRY_CODE":"US","OBJECT_NAME":"STARLINK-1487","PERIOD":"95.594","MEAN_ANOMALY":"307.1776","ARG_OF_PERICENTER":"52.9367","CLASSIFICATION_TYPE":"U","BSTAR":"-0.00030106000000","ECCENTRICITY":"0.00016810","REV_AT_EPOCH":"10001","SITE":"AFETR","SEMIMAJOR_AXIS":"6925.445","FILE":"3386965","OBJECT_TYPE":"PAYLOAD","CENTER_NAME":"EARTH","NORAD_CAT_ID":"45758","APOAPSIS":"548.474","EPHEMERIS_TYPE":"0","RCS_SIZE":"LARGE","TIME_SYSTEM":"UTC","REF_FRAME":"TEME","GP_ID":"200377070","RA_OF_ASC_NODE":"183.5007","MEAN_MOTION":"15.06368529","PERIAPSIS":"546.146","MEAN_ELEMENT_THEORY":"SGP4","LAUNCH_DATE":"2020-06-13","TLE_LINE2":"2 45758  53.0532 183.5007 0001681  52.9367 307.1776 15.06368529100019","INCLINATION":"53.0532","EPOCH":"2022-04-03T14:15:11.723616","DECAY_DATE":null,"ELEMENT_SET_NO":"999","MEAN_MOTION_DOT":"-0.00004759","OBJECT_ID":"2020-038AE","TLE_LINE1":"1 45758U 20038AE  22093.59388569 -.00004759  00000-0 -30106-3 0  9991"},{"ARG_OF_PERICENTER":"50.8117","CLASSIFICATION_TYPE":"U","OBJECT_NAME":"STARLINK-1493","PERIOD":"95.593","MEAN_ANOMALY":"309.3012","MEAN_MOTION_DDOT":"0.0000000000000","COUNTRY_CODE":"US","SEMIMAJOR_AXIS":"6925.387","SITE":"AFETR","REV_AT_EPOCH":"10000","ECCENTRICITY":"0.00015750","BSTAR":"0.00012454000000","RCS_SIZE":"LARGE","TIME_SYSTEM":"UTC","GP_ID":"200377820","RA_OF_ASC_NODE":"183.8746","REF_FRAME":"TEME","APOAPSIS":"548.343","NORAD_CAT_ID":"45759","EPHEMERIS_TYPE":"0","CENTER_NAME":"EARTH","OBJECT_TYPE":"PAYLOAD","FILE":"3386965","TLE_LINE1":"1 45759U 20038AF  22093.50910016  .00001573  00000-0  12454-3 0  9996","MEAN_MOTION_DOT":"0.00001573","OBJECT_ID":"2020-038AF","DECAY_DATE":null,"ELEMENT_SET_NO":"999","MEAN_ELEMENT_THEORY":"SGP4","PERIAPSIS":"546.162","MEAN_MOTION":"15.06387357","TLE_LINE2":"2 45759  53.0523 183.8746 0001575  50.8117 309.3012 15.06387357100001","INCLINATION":"53.0523","LAUNCH_DATE":"2020-06-13","EPOCH":"2022-04-03T12:13:06.253824"},{"FILE":"3386965","OBJECT_TYPE":"PAYLOAD","CENTER_NAME":"EARTH","APOAPSIS":"548.353","NORAD_CAT_ID":"45760","EPHEMERIS_TYPE":"0","RCS_SIZE":"LARGE","TIME_SYSTEM":"UTC","GP_ID":"200376568","RA_OF_ASC_NODE":"183.5831","REF_FRAME":"TEME","MEAN_MOTION":"15.06386916","PERIAPSIS":"546.155","MEAN_ELEMENT_THEORY":"SGP4","INCLINATION":"53.0551","TLE_LINE2":"2 45760  53.0551 183.5831 0001587  58.7911 301.3233 15.06386916100027","LAUNCH_DATE":"2020-06-13","EPOCH":"2022-04-03T13:53:58.058016","DECAY_DATE":null,"ELEMENT_SET_NO":"999","MEAN_MOTION_DOT":"-0.00002682","OBJECT_ID":"2020-038AG","TLE_LINE1":"1 45760U 20038AG  22093.57914419 -.00002682  00000-0 -16129-3 0  9993","MEAN_MOTION_DDOT":"0.0000000000000","COUNTRY_CODE":"US","OBJECT_NAME":"STARLINK-1494","MEAN_ANOMALY":"301.3233","PERIOD":"95.593","ARG_OF_PERICENTER":"58.7911","CLASSIFICATION_TYPE":"U","BSTAR":"-0.00016129000000","ECCENTRICITY":"0.00015870","SITE":"AFETR","REV_AT_EPOCH":"10002","SEMIMAJOR_AXIS":"6925.389"},{"FILE":"3386965","CENTER_NAME":"EARTH","OBJECT_TYPE":"PAYLOAD","APOAPSIS":"354.804","NORAD_CAT_ID":"45761","EPHEMERIS_TYPE":"0","RCS_SIZE":"LARGE","TIME_SYSTEM":"UTC","GP_ID":"200376818","REF_FRAME":"TEME","RA_OF_ASC_NODE":"104.7958","MEAN_MOTION":"15.73020497","PERIAPSIS":"345.740","MEAN_ELEMENT_THEORY":"SGP4","TLE_LINE2":"2 45761  53.0502 104.7958 0006736 270.4453  89.5793 15.73020497101158","INCLINATION":"53.0502","LAUNCH_DATE":"2020-06-13","EPOCH":"2022-04-03T17:28:09.580224","ELEMENT_SET_NO":"999","DECAY_DATE":null,"MEAN_MOTION_DOT":"0.00319198","OBJECT_ID":"2020-038AH","TLE_LINE1":"1 45761U 20038AH  22093.72788866  .00319198  00000-0  22082-2 0  9991","MEAN_MOTION_DDOT":"0.0000000000000","COUNTRY_CODE":"US","OBJECT_NAME":"STARLINK-1495","PERIOD":"91.544","MEAN_ANOMALY":"89.5793","ARG_OF_PERICENTER":"270.4453","CLASSIFICATION_TYPE":"U","BSTAR":"0.00220820000000","ECCENTRICITY":"0.00067360","SITE":"AFETR","REV_AT_EPOCH":"10115","SEMIMAJOR_AXIS":"6728.407"},{"EPOCH":"2022-04-03T13:11:30.052896","INCLINATION":"53.0550","TLE_LINE2":"2 45762  53.0550 183.7063 0001418  64.4997 295.6139 15.06381971100024","LAUNCH_DATE":"2020-06-13","PERIAPSIS":"546.287","MEAN_ELEMENT_THEORY":"SGP4","MEAN_MOTION":"15.06381971","DECAY_DATE":null,"ELEMENT_SET_NO":"999","OBJECT_ID":"2020-038AJ","MEAN_MOTION_DOT":"-0.00003038","TLE_LINE1":"1 45762U 20038AJ  22093.54965339 -.00003038  00000-0 -18526-3 0  9998","FILE":"3386965","CENTER_NAME":"EARTH","OBJECT_TYPE":"PAYLOAD","EPHEMERIS_TYPE":"0","APOAPSIS":"548.251","NORAD_CAT_ID":"45762","GP_ID":"200377570","REF_FRAME":"TEME","RA_OF_ASC_NODE":"183.7063","TIME_SYSTEM":"UTC","RCS_SIZE":"LARGE","BSTAR":"-0.00018526000000","ECCENTRICITY":"0.00014180","SITE":"AFETR","REV_AT_EPOCH":"10002","SEMIMAJOR_AXIS":"6925.404","COUNTRY_CODE":"US","MEAN_MOTION_DDOT":"0.0000000000000","PERIOD":"95.593","MEAN_ANOMALY":"295.6139","OBJECT_NAME":"STARLINK-1499","CLASSIFICATION_TYPE":"U","ARG_OF_PERICENTER":"64.4997"},{"CENTER_NAME":"EARTH","OBJECT_TYPE":"PAYLOAD","FILE":"3386965","TIME_SYSTEM":"UTC","RA_OF_ASC_NODE":"53.1359","GP_ID":"200377321","REF_FRAME":"TEME","RCS_SIZE":"LARGE","APOAPSIS":"345.089","NORAD_CAT_ID":"45763","EPHEMERIS_TYPE":"0","ELEMENT_SET_NO":"999","DECAY_DATE":null,"TLE_LINE2":"2 45763  53.0476  53.1359 0007681 278.8980  81.1169 15.76654503102047","INCLINATION":"53.0476","LAUNCH_DATE":"2020-06-13","EPOCH":"2022-04-03T14:26:03.771456","MEAN_ELEMENT_THEORY":"SGP4","PERIAPSIS":"334.769","MEAN_MOTION":"15.76654503","TLE_LINE1":"1 45763U 20038AK  22093.60143254 -.00016389  00000-0 -96365-4 0  9991","MEAN_MOTION_DOT":"-0.00016389","OBJECT_ID":"2020-038AK","OBJECT_NAME":"STARLINK-1501","PERIOD":"91.333","MEAN_ANOMALY":"81.1169","MEAN_MOTION_DDOT":"0.0000000000000","COUNTRY_CODE":"US","ARG_OF_PERICENTER":"278.8980","CLASSIFICATION_TYPE":"U","ECCENTRICITY":"0.00076810","BSTAR":"-0.00009636500000","SEMIMAJOR_AXIS":"6718.064","SITE":"AFETR","REV_AT_EPOCH":"10204"},{"TLE_LINE1":"1 45764U 20038AL  22093.60862604 -.00006145  00000-0 -39418-3 0  9993","MEAN_MOTION_DOT":"-0.00006145","OBJECT_ID":"2020-038AL","DECAY_DATE":null,"ELEMENT_SET_NO":"999","PERIAPSIS":"546.173","MEAN_ELEMENT_THEORY":"SGP4","MEAN_MOTION":"15.06382362","TLE_LINE2":"2 45764  53.0552 183.4375 0001581  59.2269 300.8875 15.06382362100038","LAUNCH_DATE":"2020-06-13","INCLINATION":"53.0552","EPOCH":"2022-04-03T14:36:25.289856","RCS_SIZE":"LARGE","TIME_SYSTEM":"UTC","RA_OF_ASC_NODE":"183.4375","GP_ID":"200376069","REF_FRAME":"TEME","NORAD_CAT_ID":"45764","APOAPSIS":"548.363","EPHEMERIS_TYPE":"0","CENTER_NAME":"EARTH","OBJECT_TYPE":"PAYLOAD","FILE":"3386965","SEMIMAJOR_AXIS":"6925.403","REV_AT_EPOCH":"10003","SITE":"AFETR","ECCENTRICITY":"0.00015810","BSTAR":"-0.00039418000000","ARG_OF_PERICENTER":"59.2269","CLASSIFICATION_TYPE":"U","OBJECT_NAME":"STARLINK-1502","MEAN_ANOMALY":"300.8875","PERIOD":"95.593","MEAN_MOTION_DDOT":"0.0000000000000","COUNTRY_CODE":"US"},{"FILE":"3386965","OBJECT_TYPE":"PAYLOAD","CENTER_NAME":"EARTH","NORAD_CAT_ID":"45766","APOAPSIS":"548.501","EPHEMERIS_TYPE":"0","RCS_SIZE":"LARGE","TIME_SYSTEM":"UTC","GP_ID":"200376319","RA_OF_ASC_NODE":"183.7845","REF_FRAME":"TEME","PERIAPSIS":"546.053","MEAN_ELEMENT_THEORY":"SGP4","MEAN_MOTION":"15.06379370","INCLINATION":"53.0531","TLE_LINE2":"2 45766  53.0531 183.7845 0001767  54.8391 305.2763 15.06379370100002","LAUNCH_DATE":"2020-06-13","EPOCH":"2022-04-03T12:44:57.343200","DECAY_DATE":null,"ELEMENT_SET_NO":"999","MEAN_MOTION_DOT":"-0.00005591","OBJECT_ID":"2020-038AN","TLE_LINE1":"1 45766U 20038AN  22093.53121925 -.00005591  00000-0 -35693-3 0  9996","MEAN_MOTION_DDOT":"0.0000000000000","COUNTRY_CODE":"US","OBJECT_NAME":"STARLINK-1509","MEAN_ANOMALY":"305.2763","PERIOD":"95.593","ARG_OF_PERICENTER":"54.8391","CLASSIFICATION_TYPE":"U","BSTAR":"-0.00035693000000","ECCENTRICITY":"0.00017670","SITE":"AFETR","REV_AT_EPOCH":"10000","SEMIMAJOR_AXIS":"6925.412"},{"ELEMENT_SET_NO":"999","DECAY_DATE":null,"PERIAPSIS":"546.233","MEAN_MOTION":"15.06376594","MEAN_ELEMENT_THEORY":"SGP4","EPOCH":"2022-04-03T15:45:25.253856","INCLINATION":"53.0539","TLE_LINE2":"2 45767  53.0539 183.2295 0001520  43.4984 316.6124 15.06376594100028","LAUNCH_DATE":"2020-06-13","TLE_LINE1":"1 45767U 20038AP  22093.65654229 -.00003175  00000-0 -19444-3 0  9990","OBJECT_ID":"2020-038AP","MEAN_MOTION_DOT":"-0.00003175","CENTER_NAME":"EARTH","OBJECT_TYPE":"PAYLOAD","FILE":"3386965","RCS_SIZE":"LARGE","GP_ID":"200377071","REF_FRAME":"TEME","RA_OF_ASC_NODE":"183.2295","TIME_SYSTEM":"UTC","EPHEMERIS_TYPE":"0","NORAD_CAT_ID":"45767","APOAPSIS":"548.338","ECCENTRICITY":"0.00015200","BSTAR":"-0.00019444000000","SEMIMAJOR_AXIS":"6925.420","SITE":"AFETR","REV_AT_EPOCH":"10002","MEAN_ANOMALY":"316.6124","PERIOD":"95.594","OBJECT_NAME":"STARLINK-1511","COUNTRY_CODE":"US","MEAN_MOTION_DDOT":"0.0000000000000","CLASSIFICATION_TYPE":"U","ARG_OF_PERICENTER":"43.4984"},{"ARG_OF_PERICENTER":"61.2790","CLASSIFICATION_TYPE":"U","OBJECT_NAME":"STARLINK-1521","MEAN_ANOMALY":"298.8359","PERIOD":"95.593","MEAN_MOTION_DDOT":"0.0000000000000","COUNTRY_CODE":"US","SEMIMAJOR_AXIS":"6925.389","SITE":"AFETR","REV_AT_EPOCH":"10004","ECCENTRICITY":"0.00015930","BSTAR":"-0.00027319000000","TIME_SYSTEM":"UTC","REF_FRAME":"TEME","GP_ID":"200377821","RA_OF_ASC_NODE":"183.0152","RCS_SIZE":"LARGE","APOAPSIS":"548.357","NORAD_CAT_ID":"45768","EPHEMERIS_TYPE":"0","CENTER_NAME":"EARTH","OBJECT_TYPE":"PAYLOAD","FILE":"3386965","TLE_LINE1":"1 45768U 20038AQ  22093.70445997 -.00004347  00000-0 -27319-3 0  9999","MEAN_MOTION_DOT":"-0.00004347","OBJECT_ID":"2020-038AQ","ELEMENT_SET_NO":"999","DECAY_DATE":null,"INCLINATION":"53.0520","TLE_LINE2":"2 45768  53.0520 183.0152 0001593  61.2790 298.8359 15.06386818100045","LAUNCH_DATE":"2020-06-13","EPOCH":"2022-04-03T16:54:25.341408","PERIAPSIS":"546.151","MEAN_MOTION":"15.06386818","MEAN_ELEMENT_THEORY":"SGP4"}];
